{
  "type": "FeatureCollection",
  "features": [
    {
      "type": "Feature",
      "properties": {
        "norad_id": 32376,
        "name": "COSMO-SKYMED 2",
        "group": "resource",
        "lat": -24.212711968088367,
        "lon": 172.2530890579021,
        "alt_km": 628.3706050034143,
        "timestamp": "2025-12-13T08:49:15.350085+00:00",
        "meta_object_name": "COSMO-SKYMED 2",
        "meta_object_id": "2007-059A",
        "meta_epoch": "2025-12-13T00:49:47.443296",
        "meta_mean_motion": 14.82167021,
        "meta_eccentricity": 0.00015014,
        "meta_inclination": 97.8811,
        "meta_ra_of_asc_node": 168.354,
        "meta_arg_of_pericenter": 84.1644,
        "meta_mean_anomaly": 275.974,
        "meta_ephemeris_type": 0,
        "meta_classification_type": "U",
        "meta_norad_cat_id": 32376,
        "meta_element_set_no": 999,
        "meta_rev_at_epoch": 97442,
        "meta_bstar": 0.00011989246,
        "meta_mean_motion_dot": 9.03e-06,
        "meta_mean_motion_ddot": 0,
        "tle_line1": "1 32376U 07059A   25347.03457689  .00000903  00000+0  11989-3 0  9997",
        "tle_line2": "2 32376  97.8811 168.3540 0001501  84.1644 275.9740 14.82167021974420"
      },
      "geometry": {
        "type": "Point",
        "coordinates": [
          172.2530890579021,
          -24.212711968088367
        ]
      }
    },
    {
      "type": "Feature",
      "properties": {
        "norad_id": 32382,
        "name": "RADARSAT-2",
        "group": "resource",
        "lat": 12.889532193181731,
        "lon": 173.92838498989036,
        "alt_km": 792.7822164044137,
        "timestamp": "2025-12-13T08:49:15.350096+00:00",
        "meta_object_name": "RADARSAT-2",
        "meta_object_id": "2007-061A",
        "meta_epoch": "2025-12-12T23:38:48.452928",
        "meta_mean_motion": 14.29982488,
        "meta_eccentricity": 0.00011322,
        "meta_inclination": 98.5803,
        "meta_ra_of_asc_node": 351.5717,
        "meta_arg_of_pericenter": 86.2615,
        "meta_mean_anomaly": 273.8697,
        "meta_ephemeris_type": 0,
        "meta_classification_type": "U",
        "meta_norad_cat_id": 32382,
        "meta_element_set_no": 999,
        "meta_rev_at_epoch": 93934,
        "meta_bstar": 0.00012993317,
        "meta_mean_motion_dot": 2.91e-06,
        "meta_mean_motion_ddot": 0,
        "tle_line1": "1 32382U 07061A   25346.98528302  .00000291  00000+0  12993-3 0  9997",
        "tle_line2": "2 32382  98.5803 351.5717 0001132  86.2615 273.8697 14.29982488939342"
      },
      "geometry": {
        "type": "Point",
        "coordinates": [
          173.92838498989036,
          12.889532193181731
        ]
      }
    },
    {
      "type": "Feature",
      "properties": {
        "norad_id": 32783,
        "name": "CARTOSAT-2A",
        "group": "resource",
        "lat": 70.22930793841543,
        "lon": -120.43301568603249,
        "alt_km": 628.0773669846549,
        "timestamp": "2025-12-13T08:49:15.350109+00:00",
        "meta_object_name": "CARTOSAT-2A",
        "meta_object_id": "2008-021A",
        "meta_epoch": "2025-12-13T00:12:54.835200",
        "meta_mean_motion": 14.78937255,
        "meta_eccentricity": 0.00118562,
        "meta_inclination": 97.793,
        "meta_ra_of_asc_node": 36.8236,
        "meta_arg_of_pericenter": 3.9901,
        "meta_mean_anomaly": 356.1403,
        "meta_ephemeris_type": 0,
        "meta_classification_type": "U",
        "meta_norad_cat_id": 32783,
        "meta_element_set_no": 999,
        "meta_rev_at_epoch": 95128,
        "meta_bstar": 0.0001506099,
        "meta_mean_motion_dot": 1.062e-05,
        "meta_mean_motion_ddot": 0,
        "tle_line1": "1 32783U 08021A   25347.00896800  .00001062  00000+0  15061-3 0  9990",
        "tle_line2": "2 32783  97.7930  36.8236 0011856   3.9901 356.1403 14.78937255951289"
      },
      "geometry": {
        "type": "Point",
        "coordinates": [
          -120.43301568603249,
          70.22930793841543
        ]
      }
    },
    {
      "type": "Feature",
      "properties": {
        "norad_id": 33320,
        "name": "HUANJING 1A (HJ-1A)",
        "group": "resource",
        "lat": -16.63962627029097,
        "lon": -22.056603850451026,
        "alt_km": 614.298062473149,
        "timestamp": "2025-12-13T08:49:15.350121+00:00",
        "meta_object_name": "HUANJING 1A (HJ-1A)",
        "meta_object_id": "2008-041A",
        "meta_epoch": "2025-12-13T00:48:06.230880",
        "meta_mean_motion": 14.83396277,
        "meta_eccentricity": 0.0020083,
        "meta_inclination": 97.6543,
        "meta_ra_of_asc_node": 335.3197,
        "meta_arg_of_pericenter": 33.408,
        "meta_mean_anomaly": 326.8397,
        "meta_ephemeris_type": 0,
        "meta_classification_type": "U",
        "meta_norad_cat_id": 33320,
        "meta_element_set_no": 999,
        "meta_rev_at_epoch": 93080,
        "meta_bstar": 0.00029939229,
        "meta_mean_motion_dot": 2.414e-05,
        "meta_mean_motion_ddot": 0,
        "tle_line1": "1 33320U 08041A   25347.03340545  .00002414  00000+0  29939-3 0  9994",
        "tle_line2": "2 33320  97.6543 335.3197 0020083  33.4080 326.8397 14.83396277930807"
      },
      "geometry": {
        "type": "Point",
        "coordinates": [
          -22.056603850451026,
          -16.63962627029097
        ]
      }
    },
    {
      "type": "Feature",
      "properties": {
        "norad_id": 33321,
        "name": "HUANJING 1B (HJ-1B)",
        "group": "resource",
        "lat": -23.529572671236153,
        "lon": 155.98427282077168,
        "alt_km": 643.021942485886,
        "timestamp": "2025-12-13T08:49:15.350132+00:00",
        "meta_object_name": "HUANJING 1B (HJ-1B)",
        "meta_object_id": "2008-041B",
        "meta_epoch": "2025-12-12T23:48:40.069152",
        "meta_mean_motion": 14.82822548,
        "meta_eccentricity": 0.00381205,
        "meta_inclination": 97.6403,
        "meta_ra_of_asc_node": 338.9763,
        "meta_arg_of_pericenter": 74.9069,
        "meta_mean_anomaly": 285.6358,
        "meta_ephemeris_type": 0,
        "meta_classification_type": "U",
        "meta_norad_cat_id": 33321,
        "meta_element_set_no": 999,
        "meta_rev_at_epoch": 93081,
        "meta_bstar": 0.00027563316,
        "meta_mean_motion_dot": 2.207e-05,
        "meta_mean_motion_ddot": 0,
        "tle_line1": "1 33321U 08041B   25346.99213043  .00002207  00000+0  27563-3 0  9992",
        "tle_line2": "2 33321  97.6403 338.9763 0038120  74.9069 285.6358 14.82822548930813"
      },
      "geometry": {
        "type": "Point",
        "coordinates": [
          155.98427282077168,
          -23.529572671236153
        ]
      }
    },
    {
      "type": "Feature",
      "properties": {
        "norad_id": 33331,
        "name": "GEOEYE 1",
        "group": "resource",
        "lat": 30.692188804313705,
        "lon": -116.49499928148973,
        "alt_km": 677.1450288186679,
        "timestamp": "2025-12-13T08:49:15.350143+00:00",
        "meta_object_name": "GEOEYE 1",
        "meta_object_id": "2008-042A",
        "meta_epoch": "2025-12-12T22:18:24.580224",
        "meta_mean_motion": 14.64813221,
        "meta_eccentricity": 0.00027356,
        "meta_inclination": 98.1253,
        "meta_ra_of_asc_node": 58.2078,
        "meta_arg_of_pericenter": 275.323,
        "meta_mean_anomaly": 84.7661,
        "meta_ephemeris_type": 0,
        "meta_classification_type": "U",
        "meta_norad_cat_id": 33331,
        "meta_element_set_no": 999,
        "meta_rev_at_epoch": 92288,
        "meta_bstar": 0.00018979158,
        "meta_mean_motion_dot": 9.65e-06,
        "meta_mean_motion_ddot": 0,
        "tle_line1": "1 33331U 08042A   25346.92945116  .00000965  00000+0  18979-3 0  9990",
        "tle_line2": "2 33331  98.1253  58.2078 0002735 275.3230  84.7661 14.64813221922885"
      },
      "geometry": {
        "type": "Point",
        "coordinates": [
          -116.49499928148973,
          30.692188804313705
        ]
      }
    },
    {
      "type": "Feature",
      "properties": {
        "norad_id": 33396,
        "name": "THEOS",
        "group": "resource",
        "lat": -79.95902238501722,
        "lon": 166.86556956744917,
        "alt_km": 833.1985660597302,
        "timestamp": "2025-12-13T08:49:15.350154+00:00",
        "meta_object_name": "THEOS",
        "meta_object_id": "2008-049A",
        "meta_epoch": "2025-12-13T00:48:50.190336",
        "meta_mean_motion": 14.20095461,
        "meta_eccentricity": 0.0001183,
        "meta_inclination": 98.5864,
        "meta_ra_of_asc_node": 45.1143,
        "meta_arg_of_pericenter": 95.7606,
        "meta_mean_anomaly": 264.3706,
        "meta_ephemeris_type": 0,
        "meta_classification_type": "U",
        "meta_norad_cat_id": 33396,
        "meta_element_set_no": 999,
        "meta_rev_at_epoch": 89154,
        "meta_bstar": -3.5324975e-05,
        "meta_mean_motion_dot": -1.18e-06,
        "meta_mean_motion_ddot": 0,
        "tle_line1": "1 33396U 08049A   25347.03391424 -.00000118  00000+0 -35325-4 0  9995",
        "tle_line2": "2 33396  98.5864  45.1143 0001183  95.7606 264.3706 14.20095461891547"
      },
      "geometry": {
        "type": "Point",
        "coordinates": [
          166.86556956744917,
          -79.95902238501722
        ]
      }
    }
  ]
}